{
  "type": "FeatureCollection",
  "features": [
    {
      "type": "Feature",
      "properties": {
        "norad_id": 33376,
        "name": "GALAXY 19 (G-19)",
        "group": "intelsat",
        "lat": -0.01598064742946529,
        "lon": -76.87068455374609,
        "alt_km": 35776.01087888642,
        "timestamp": "2025-12-18T19:29:52.210616+00:00",
        "meta_object_name": "GALAXY 19 (G-19)",
        "meta_object_id": "2008-045A",
        "meta_epoch": "2025-12-17T23:08:16.678752",
        "meta_mean_motion": 1.00271057,
        "meta_eccentricity": 0.00025032,
        "meta_inclination": 0.0205,
        "meta_ra_of_asc_node": 284.9643,
        "meta_arg_of_pericenter": 344.4363,
        "meta_mean_anomaly": 67.5013,
        "meta_ephemeris_type": 0,
        "meta_classification_type": "U",
        "meta_norad_cat_id": 33376,
        "meta_element_set_no": 999,
        "meta_rev_at_epoch": 6308,
        "meta_bstar": 0,
        "meta_mean_motion_dot": -1.14e-06,
        "meta_mean_motion_ddot": 0,
        "tle_line1": "1 33376U 08045A   25351.96408193 -.00000114  00000+0  00000+0 0  9990",
        "tle_line2": "2 33376   0.0205 284.9643 0002503 344.4363  67.5013  1.00271057 63086"
      },
      "geometry": {
        "type": "Point",
        "coordinates": [
          -76.87068455374609,
          -0.01598064742946529
        ]
      }
    },
    {
      "type": "Feature",
      "properties": {
        "norad_id": 35493,
        "name": "FM-5",
        "group": "intelsat",
        "lat": -0.014776541782817013,
        "lon": -66.01845599802346,
        "alt_km": 35789.199521897026,
        "timestamp": "2025-12-18T19:29:52.210628+00:00",
        "meta_object_name": "FM-5",
        "meta_object_id": "2009-034A",
        "meta_epoch": "2025-12-18T06:01:22.018656",
        "meta_mean_motion": 1.00270493,
        "meta_eccentricity": 7.56e-05,
        "meta_inclination": 0.0177,
        "meta_ra_of_asc_node": 297.5529,
        "meta_arg_of_pericenter": 207.9656,
        "meta_mean_anomaly": 305.7935,
        "meta_ephemeris_type": 0,
        "meta_classification_type": "U",
        "meta_norad_cat_id": 35493,
        "meta_element_set_no": 999,
        "meta_rev_at_epoch": 4483,
        "meta_bstar": 0,
        "meta_mean_motion_dot": -1.75e-06,
        "meta_mean_motion_ddot": 0,
        "tle_line1": "1 35493U 09034A   25352.25094929 -.00000175  00000+0  00000+0 0  9999",
        "tle_line2": "2 35493   0.0177 297.5529 0000756 207.9656 305.7935  1.00270493 44830"
      },
      "geometry": {
        "type": "Point",
        "coordinates": [
          -66.01845599802346,
          -0.014776541782817013
        ]
      }
    },
    {
      "type": "Feature",
      "properties": {
        "norad_id": 36097,
        "name": "INTELSAT 14 (IS-14)",
        "group": "intelsat",
        "lat": -0.0004819977828505148,
        "lon": -24.837976478650578,
        "alt_km": 35780.69199649668,
        "timestamp": "2025-12-18T19:29:52.210639+00:00",
        "meta_object_name": "INTELSAT 14 (IS-14)",
        "meta_object_id": "2009-064A",
        "meta_epoch": "2025-12-18T02:48:33.538176",
        "meta_mean_motion": 1.00271907,
        "meta_eccentricity": 0.00024367,
        "meta_inclination": 0.0111,
        "meta_ra_of_asc_node": 327.0074,
        "meta_arg_of_pericenter": 310.0171,
        "meta_mean_anomaly": 167.1119,
        "meta_ephemeris_type": 0,
        "meta_classification_type": "U",
        "meta_norad_cat_id": 36097,
        "meta_element_set_no": 999,
        "meta_rev_at_epoch": 5879,
        "meta_bstar": 0,
        "meta_mean_motion_dot": -2.48e-06,
        "meta_mean_motion_ddot": 0,
        "tle_line1": "1 36097U 09064A   25352.11705484 -.00000248  00000+0  00000+0 0  9994",
        "tle_line2": "2 36097   0.0111 327.0074 0002436 310.0171 167.1119  1.00271907 58793"
      },
      "geometry": {
        "type": "Point",
        "coordinates": [
          -24.837976478650578,
          -0.0004819977828505148
        ]
      }
    },
    {
      "type": "Feature",
      "properties": {
        "norad_id": 36106,
        "name": "INTELSAT 15 (IS-15)",
        "group": "intelsat",
        "lat": 0.039203389625030664,
        "lon": 105.27714759727064,
        "alt_km": 35795.26968285718,
        "timestamp": "2025-12-18T19:29:52.210651+00:00",
        "meta_object_name": "INTELSAT 15 (IS-15)",
        "meta_object_id": "2009-067A",
        "meta_epoch": "2025-12-18T00:00:11.704608",
        "meta_mean_motion": 1.00271538,
        "meta_eccentricity": 0.00021581,
        "meta_inclination": 0.0174,
        "meta_ra_of_asc_node": 347.0041,
        "meta_arg_of_pericenter": 291.6161,
        "meta_mean_anomaly": 253.4528,
        "meta_ephemeris_type": 0,
        "meta_classification_type": "U",
        "meta_norad_cat_id": 36106,
        "meta_element_set_no": 999,
        "meta_rev_at_epoch": 3941,
        "meta_bstar": 0,
        "meta_mean_motion_dot": -1.6e-06,
        "meta_mean_motion_ddot": 0,
        "tle_line1": "1 36106U 09067A   25352.00013547 -.00000160  00000+0  00000+0 0  9991",
        "tle_line2": "2 36106   0.0174 347.0041 0002158 291.6161 253.4528  1.00271538 39414"
      },
      "geometry": {
        "type": "Point",
        "coordinates": [
          105.27714759727064,
          0.039203389625030664
        ]
      }
    },
    {
      "type": "Feature",
      "properties": {
        "norad_id": 36131,
        "name": "DIRECTV 12",
        "group": "intelsat",
        "lat": -0.01874540783689203,
        "lon": -82.60087811168898,
        "alt_km": 35786.56190031295,
        "timestamp": "2025-12-18T19:29:52.210663+00:00",
        "meta_object_name": "DIRECTV 12",
        "meta_object_id": "2009-075A",
        "meta_epoch": "2025-12-18T05:58:46.249824",
        "meta_mean_motion": 1.00269422,
        "meta_eccentricity": 6.523e-05,
        "meta_inclination": 0.0447,
        "meta_ra_of_asc_node": 145.6516,
        "meta_arg_of_pericenter": 217.5866,
        "meta_mean_anomaly": 70.8544,
        "meta_ephemeris_type": 0,
        "meta_classification_type": "U",
        "meta_norad_cat_id": 36131,
        "meta_element_set_no": 999,
        "meta_rev_at_epoch": 4473,
        "meta_bstar": 0,
        "meta_mean_motion_dot": -7.8e-07,
        "meta_mean_motion_ddot": 0,
        "tle_line1": "1 36131U 09075A   25352.24914641 -.00000078  00000+0  00000+0 0  9997",
        "tle_line2": "2 36131   0.0447 145.6516 0000652 217.5866  70.8544  1.00269422 44739"
      },
      "geometry": {
        "type": "Point",
        "coordinates": [
          -82.60087811168898,
          -0.01874540783689203
        ]
      }
    },
    {
      "type": "Feature",
      "properties": {
        "norad_id": 36397,
        "name": "INTELSAT 16 (IS-16)",
        "group": "intelsat",
        "lat": -0.028077383830680303,
        "lon": -56.05368076212004,
        "alt_km": 35779.65983784368,
        "timestamp": "2025-12-18T19:29:52.210674+00:00",
        "meta_object_name": "INTELSAT 16 (IS-16)",
        "meta_object_id": "2010-006A",
        "meta_epoch": "2025-12-18T06:13:15.155616",
        "meta_mean_motion": 1.00272496,
        "meta_eccentricity": 0.00018382,
        "meta_inclination": 0.0087,
        "meta_ra_of_asc_node": 4.2963,
        "meta_arg_of_pericenter": 263.3624,
        "meta_mean_anomaly": 196.5855,
        "meta_ephemeris_type": 0,
        "meta_classification_type": "U",
        "meta_norad_cat_id": 36397,
        "meta_element_set_no": 999,
        "meta_rev_at_epoch": 5784,
        "meta_bstar": 0,
        "meta_mean_motion_dot": -2.2e-06,
        "meta_mean_motion_ddot": 0,
        "tle_line1": "1 36397U 10006A   25352.25920319 -.00000220  00000+0  00000+0 0  9996",
        "tle_line2": "2 36397   0.0087   4.2963 0001838 263.3624 196.5855  1.00272496 57849"
      },
      "geometry": {
        "type": "Point",
        "coordinates": [
          -56.05368076212004,
          -0.028077383830680303
        ]
      }
    },
    {
      "type": "Feature",
      "properties": {
        "norad_id": 37185,
        "name": "XM-5",
        "group": "intelsat",
        "lat": -0.030851946001147674,
        "lon": -95.05465505642445,
        "alt_km": 35790.43564014198,
        "timestamp": "2025-12-18T19:29:52.210686+00:00",
        "meta_object_name": "XM-5",
        "meta_object_id": "2010-053A",
        "meta_epoch": "2025-12-18T05:51:57.087072",
        "meta_mean_motion": 1.00270796,
        "meta_eccentricity": 0.00017945,
        "meta_inclination": 0.0621,
        "meta_ra_of_asc_node": 272.5607,
        "meta_arg_of_pericenter": 229.7994,
        "meta_mean_anomaly": 277.5419,
        "meta_ephemeris_type": 0,
        "meta_classification_type": "U",
        "meta_norad_cat_id": 37185,
        "meta_element_set_no": 999,
        "meta_rev_at_epoch": 5566,
        "meta_bstar": 0,
        "meta_mean_motion_dot": 2e-08,
        "meta_mean_motion_ddot": 0,
        "tle_line1": "1 37185U 10053A   25352.24441073  .00000002  00000+0  00000+0 0  9995",
        "tle_line2": "2 37185   0.0621 272.5607 0001794 229.7994 277.5419  1.00270796 55666"
      },
      "geometry": {
        "type": "Point",
        "coordinates": [
          -95.05465505642445,
          -0.030851946001147674
        ]
      }
    }
  ]
}